NOAA 18                 
1 28654U 05018A   26077.45948877  .00000043  00000+0  45668-4 0  9992
2 28654  98.8144 158.4434 0015031  52.1145 308.1384 14.13712634 73490
NOAA 19                 
1 33591U 09005A   26077.58380535  .00000037  00000+0  43516-4 0  9996
2 33591  98.9590 148.3691 0012707 287.6260  72.3524 14.13458459881681
SUOMI NPP               
1 37849U 11061A   26077.55382640  .00000070  00000+0  54234-4 0  9993
2 37849  98.7881  19.0868 0000892 183.1260 176.9910 14.19546066745580
NOAA 20 (JPSS-1)        
1 43013U 17073A   26077.56855027  .00000071  00000+0  54432-4 0  9998
2 43013  98.7702  17.8680 0001562 125.9396 234.1925 14.19538386431614
