[{"OBJECT_NAME":"NOAA 18","OBJECT_ID":"2005-018A","EPOCH":"2026-03-18T11:01:39.829728","MEAN_MOTION":14.13712634,"ECCENTRICITY":0.00150314,"INCLINATION":98.8144,"RA_OF_ASC_NODE":158.4434,"ARG_OF_PERICENTER":52.1145,"MEAN_ANOMALY":308.1384,"EPHEMERIS_TYPE":0,"CLASSIFICATION_TYPE":"U","NORAD_CAT_ID":28654,"ELEMENT_SET_NO":999,"REV_AT_EPOCH":7349,"BSTAR":4.5667566e-5,"MEAN_MOTION_DOT":4.3e-7,"MEAN_MOTION_DDOT":0},{"OBJECT_NAME":"NOAA 19","OBJECT_ID":"2009-005A","EPOCH":"2026-03-18T14:00:40.782240","MEAN_MOTION":14.13458459,"ECCENTRICITY":0.00127076,"INCLINATION":98.959,"RA_OF_ASC_NODE":148.3691,"ARG_OF_PERICENTER":287.626,"MEAN_ANOMALY":72.3524,"EPHEMERIS_TYPE":0,"CLASSIFICATION_TYPE":"U","NORAD_CAT_ID":33591,"ELEMENT_SET_NO":999,"REV_AT_EPOCH":88168,"BSTAR":4.3516116e-5,"MEAN_MOTION_DOT":3.7e-7,"MEAN_MOTION_DDOT":0},{"OBJECT_NAME":"SUOMI NPP","OBJECT_ID":"2011-061A","EPOCH":"2026-03-18T13:17:30.600960","MEAN_MOTION":14.19546066,"ECCENTRICITY":8.926e-5,"INCLINATION":98.7881,"RA_OF_ASC_NODE":19.0868,"ARG_OF_PERICENTER":183.126,"MEAN_ANOMALY":176.991,"EPHEMERIS_TYPE":0,"CLASSIFICATION_TYPE":"U","NORAD_CAT_ID":37849,"ELEMENT_SET_NO":999,"REV_AT_EPOCH":74558,"BSTAR":5.4233594e-5,"MEAN_MOTION_DOT":7.0e-7,"MEAN_MOTION_DDOT":0},{"OBJECT_NAME":"NOAA 20 (JPSS-1)","OBJECT_ID":"2017-073A","EPOCH":"2026-03-18T13:38:42.743328","MEAN_MOTION":14.19538386,"ECCENTRICITY":0.00015622,"INCLINATION":98.7702,"RA_OF_ASC_NODE":17.868,"ARG_OF_PERICENTER":125.9396,"MEAN_ANOMALY":234.1925,"EPHEMERIS_TYPE":0,"CLASSIFICATION_TYPE":"U","NORAD_CAT_ID":43013,"ELEMENT_SET_NO":999,"REV_AT_EPOCH":43161,"BSTAR":5.4432399e-5,"MEAN_MOTION_DOT":7.1e-7,"MEAN_MOTION_DDOT":0}]
